0 DELTA 1 DEB
1 12232U 78026BZ  13283.12092002  .00050402  00000-0  40485-2 0  9024
2 12232 099.0426 069.1276 0032214 016.5869 343.6396 14.99430962702101
0 DELTA 1 DEB
1 12232U 78026BZ  13283.65477519  .00090204  00000-0  72784-2 0  9045
2 12232 099.0365 069.7342 0032039 015.0777 345.1895 14.99482627702184
0 DELTA 1 DEB
1 12232U 78026BZ  13284.12186652  .00048553  00000-0  38935-2 0  9032
2 12232 099.0423 070.2886 0032303 012.9085 347.2954 14.99504911702259
0 DELTA 1 DEB
1 12232U 78026BZ  13286.12360716  .00044891  00000-0  35868-2 0  9054
2 12232 099.0420 072.6113 0032398 006.1624 353.9987 14.99665593702550
0 DELTA 1 DEB
1 12232U 78026BZ  13287.12439809  .00042095  00000-0  33588-2 0  9067
2 12232 099.0415 073.7724 0032442 002.7620 357.3772 14.99736010702702
0 DELTA 1 DEB
1 12232U 78026BZ  13287.65813335  .00060849  00000-0  48336-2 0  9070
2 12232 099.0411 074.3914 0032512 000.8049 359.3217 14.99784675702782
0 DELTA 1 DEB
1 12232U 78026BZ  13288.65882670  .00059744  00000-0  47319-2 0  9082
2 12232 099.0411 075.5530 0032556 357.3377 002.7663 14.99902781702932
0 DELTA 1 DEB
1 12232U 78026BZ  13289.65944849  .00065704  00000-0  51866-2 0  9096
2 12232 099.0408 076.7141 0032631 353.9694 006.1128 14.99992863703088
0 DELTA 1 DEB
1 12232U 78026BZ  13290.12638445  .00058541  00000-0  46203-2 0  9104
2 12232 099.0406 077.2562 0032673 352.3477 007.7239 15.00041608703150
0 DELTA 1 DEB
1 12232U 78026BZ  13290.72672064  .00069711  00000-0  55294-2 0  9106
2 12232 099.0495 077.9606 0032820 350.8379 009.2741 15.00116489703247
0 DELTA 1 DEB
1 12232U 78026BZ  13291.12691168  .00054666  00000-0  43044-2 0  9111
2 12232 099.0407 078.4175 0032815 349.0417 011.0083 15.00151530703307
0 DELTA 1 DEB
1 12232U 78026BZ  13292.12737114  .00050138  00000-0  39406-2 0  9122
2 12232 099.0415 079.5806 0033067 345.5284 014.4985 15.00243650703451
0 DELTA 1 DEB
1 12232U 78026BZ  13293.12776504  .00052653  00000-0  41260-2 0  9135
2 12232 099.0416 080.7420 0033003 342.4943 017.5136 15.00342895703606
0 DELTA 1 DEB
1 12232U 78026BZ  13294.12809431  .00059871  00000-0  46738-2 0  9147
2 12232 099.0410 081.9035 0033268 339.1196 020.8663 15.00436779703754
0 DELTA 1 DEB
1 12232U 78026BZ  13295.12835899  .00060371  00000-0  47007-2 0  9153
2 12232 099.0408 083.0652 0033369 335.8697 024.0957 15.00528982703907
0 DELTA 1 DEB
1 12232U 78026BZ  13296.12855972  .00065854  00000-0  51079-2 0  9164
2 12232 099.0405 084.2276 0033520 332.5362 027.4085 15.00639397704050
